{"type": "FeatureCollection", "features": [ {"type": "Feature", "properties": {"norad_id": 66910, "name": "1998-067XW", "group": "stations", "lat": -46.45727869396812, "lon": 40.125918423049654, "alt_km": 416.147895451928, "timestamp": "2025-12-08T10:52:01.736942+00:00", "meta": {"OBJECT_NAME": "1998-067XW", "OBJECT_ID": "1998-067XW", "EPOCH": "2025-12-07T21:26:00.150720", "MEAN_MOTION": 15.50969965, "ECCENTRICITY": 0.00060372, "INCLINATION": 51.6295, "RA_OF_ASC_NODE": 166.4259, "ARG_OF_PERICENTER": 184.7367, "MEAN_ANOMALY": 175.3566, "EPHEMERIS_TYPE": 0, "CLASSIFICATION_TYPE": "U", "NORAD_CAT_ID": 66910, "ELEMENT_SET_NO": 999, "REV_AT_EPOCH": 86, "BSTAR": 0.0010283643, "MEAN_MOTION_DOT": 0.00060787, "MEAN_MOTION_DDOT": 0}, "tle": {"line1": "1 66910U 98067XW  25341.89305730  .00060787  00000+0  10284-2 0  9996", "line2": "2 66910  51.6295 166.4259 0006037 184.7367 175.3566 15.50969965   869"}}, "geometry": {"type": "Point", "coordinates": [40.125918423049654, -46.45727869396812]}}, {"type": "Feature", "properties": {"norad_id": 66911, "name": "1998-067XX", "group": "stations", "lat": -46.949362147468186, "lon": 41.65707553137344, "alt_km": 415.8502559362296, "timestamp": "2025-12-08T10:52:01.736952+00:00", "meta": {"OBJECT_NAME": "1998-067XX", "OBJECT_ID": "1998-067XX", "EPOCH": "2025-12-07T22:58:32.522304", "MEAN_MOTION": 15.51093228, "ECCENTRICITY": 0.00059306, "INCLINATION": 51.6292, "RA_OF_ASC_NODE": 166.1051, "ARG_OF_PERICENTER": 185.6814, "MEAN_ANOMALY": 174.4109, "EPHEMERIS_TYPE": 0, "CLASSIFICATION_TYPE": "U", "NORAD_CAT_ID": 66911, "ELEMENT_SET_NO": 999, "REV_AT_EPOCH": 86, "BSTAR": 0.0012532777, "MEAN_MOTION_DOT": 0.00074641, "MEAN_MOTION_DDOT": 0}, "tle": {"line1": "1 66911U 98067XX  25341.95732086  .00074641  00000+0  12533-2 0  9995", "line2": "2 66911  51.6292 166.1051 0005930 185.6814 174.4109 15.51093228   866"}}, "geometry": {"type": "Point", "coordinates": [41.65707553137344, -46.949362147468186]}}, {"type": "Feature", "properties": {"norad_id": 66912, "name": "1998-067XY", "group": "stations", "lat": -41.9965155685046, "lon": 29.170650375216777, "alt_km": 416.6822696704221, "timestamp": "2025-12-08T10:52:01.736962+00:00", "meta": {"OBJECT_NAME": "1998-067XY", "OBJECT_ID": "1998-067XY", "EPOCH": "2025-12-07T21:28:04.340352", "MEAN_MOTION": 15.50490946, "ECCENTRICITY": 0.00051234, "INCLINATION": 51.6298, "RA_OF_ASC_NODE": 166.4355, "ARG_OF_PERICENTER": 198.3714, "MEAN_ANOMALY": 161.709, "EPHEMERIS_TYPE": 0, "CLASSIFICATION_TYPE": "U", "NORAD_CAT_ID": 66912, "ELEMENT_SET_NO": 999, "REV_AT_EPOCH": 85, "BSTAR": 0.00087425229, "MEAN_MOTION_DOT": 0.00050656, "MEAN_MOTION_DDOT": 0}, "tle": {"line1": "1 66912U 98067XY  25341.89449468  .00050656  00000+0  87425-3 0  9991", "line2": "2 66912  51.6298 166.4355 0005123 198.3714 161.7090 15.50490946   851"}}, "geometry": {"type": "Point", "coordinates": [29.170650375216777, -41.9965155685046]}}]}